[{"OBJECT_NAME":"TIANMU-1 19","OBJECT_ID":"2023-208A","EPOCH":"2026-03-09T22:13:36.801696","MEAN_MOTION":15.2984143,"ECCENTRICITY":0.00039292,"INCLINATION":97.4383,"RA_OF_ASC_NODE":184.9132,"ARG_OF_PERICENTER":316.2611,"MEAN_ANOMALY":43.8317,"EPHEMERIS_TYPE":0,"CLASSIFICATION_TYPE":"U","NORAD_CAT_ID":58660,"ELEMENT_SET_NO":999,"REV_AT_EPOCH":12214,"BSTAR":0.00040995676,"MEAN_MOTION_DOT":0.00011779,"MEAN_MOTION_DDOT":0},{"OBJECT_NAME":"STARLINK-35826","OBJECT_ID":"2025-254AD","EPOCH":"2026-03-09T16:12:26.707104","MEAN_MOTION":15.30208755,"ECCENTRICITY":0.00012663,"INCLINATION":53.1567,"RA_OF_ASC_NODE":229.6175,"ARG_OF_PERICENTER":46.2472,"MEAN_ANOMALY":313.8633,"EPHEMERIS_TYPE":0,"CLASSIFICATION_TYPE":"U","NORAD_CAT_ID":66375,"ELEMENT_SET_NO":999,"REV_AT_EPOCH":1901,"BSTAR":0.00043874153,"MEAN_MOTION_DOT":0.00012661,"MEAN_MOTION_DDOT":0}]
